{
  "generated_at": "2026-05-17T08:21:36+00:00",
  "source": "celestrak.org",
  "satellite_count": 9,
  "satellites": [
    {
      "id": "terra",
      "name": "TERRA",
      "platform": "EOS",
      "sensor": "MODIS",
      "swath_km": 2330,
      "color": "#39d0d8",
      "norad": 25994,
      "tle1": "1 25994U 99068A   26136.92427235  .00000236  00000+0  57083-4 0  9990",
      "tle2": "2 25994  97.9477 187.7066 0001815   7.8242  43.0259 14.61076066405040"
    },
    {
      "id": "aqua",
      "name": "AQUA",
      "platform": "EOS",
      "sensor": "MODIS",
      "swath_km": 2330,
      "color": "#2bb673",
      "norad": 27424,
      "tle1": "1 27424U 02022A   26136.90953361  .00000439  00000+0  97218-4 0  9995",
      "tle2": "2 27424  98.4262 105.5725 0002062  73.4940 309.3281 14.62105703278703"
    },
    {
      "id": "snpp",
      "name": "SUOMI NPP",
      "platform": "JPSS",
      "sensor": "VIIRS",
      "swath_km": 3000,
      "color": "#ff8c42",
      "norad": 37849,
      "tle1": "1 37849U 11061A   26136.90368062  .00000029  00000+0  34868-4 0  9995",
      "tle2": "2 37849  98.7943  77.9960 0002782  67.6144 292.5327 14.19510288754003"
    },
    {
      "id": "noaa20",
      "name": "NOAA 20",
      "platform": "JPSS",
      "sensor": "VIIRS",
      "swath_km": 3000,
      "color": "#ffaa00",
      "norad": 43013,
      "tle1": "1 43013U 17073A   26136.91677390  .00000053  00000+0  45955-4 0  9998",
      "tle2": "2 43013  98.7762  76.6595 0001383  47.3059 312.8233 14.19505535440034"
    },
    {
      "id": "noaa21",
      "name": "NOAA 21",
      "platform": "JPSS",
      "sensor": "VIIRS",
      "swath_km": 3000,
      "color": "#ff5a3a",
      "norad": 54234,
      "tle1": "1 54234U 22150A   26136.80985013  .00000021  00000+0  30556-4 0  9995",
      "tle2": "2 54234  98.7051  76.1280 0000686 322.2242  37.8886 14.19559338182099"
    },
    {
      "id": "sentinel2a",
      "name": "SENTINEL-2A",
      "platform": "Copernicus",
      "sensor": "MSI",
      "swath_km": 290,
      "color": "#b388ff",
      "norad": 40697,
      "tle1": "1 40697U 15028A   26136.95593976  .00000130  00000+0  66134-4 0  9990",
      "tle2": "2 40697  98.5693 212.2493 0001207  85.6217 274.5104 14.30814100569263"
    },
    {
      "id": "sentinel2b",
      "name": "SENTINEL-2B",
      "platform": "Copernicus",
      "sensor": "MSI",
      "swath_km": 290,
      "color": "#9d6dff",
      "norad": 42063,
      "tle1": "1 42063U 17013A   26136.94872897  .00000138  00000+0  69327-4 0  9991",
      "tle2": "2 42063  98.5700 212.1622 0001284  90.0312 270.1018 14.30819273480179"
    },
    {
      "id": "sentinel3a",
      "name": "SENTINEL-3A",
      "platform": "Copernicus",
      "sensor": "OLCI",
      "swath_km": 1270,
      "color": "#7a4fff",
      "norad": 41335,
      "tle1": "1 41335U 16011A   26136.93864380  .00000070  00000+0  46925-4 0  9990",
      "tle2": "2 41335  98.6258 204.7686 0001118 107.4040 252.7262 14.26736774533606"
    },
    {
      "id": "sentinel3b",
      "name": "SENTINEL-3B",
      "platform": "Copernicus",
      "sensor": "OLCI",
      "swath_km": 1270,
      "color": "#5e3bff",
      "norad": 43437,
      "tle1": "1 43437U 18039A   26136.91178029  .00000068  00000+0  46208-4 0  9994",
      "tle2": "2 43437  98.6259 204.8904 0001400  78.3555 281.7783 14.26739357419666"
    }
  ]
}